IRIDIUM 116             
1 43072U 17083C   25230.55915789  .00000043  00000+0  81867-5 0  9997
2 43072  86.3918  88.5313 0002325  91.2125 268.9337 14.34217588400794
IRIDIUM 130             
1 43073U 17083D   25230.87628694  .00000082  00000+0  22038-4 0  9996
2 43073  86.3926  88.6446 0002244  96.4833 263.6618 14.34217753400782
IRIDIUM 151             
1 43074U 17083E   25230.57184259  .00000069  00000+0  17583-4 0  9992
2 43074  86.3920  88.5770 0002343  90.6612 269.4852 14.34217788400767
IRIDIUM 134             
1 43075U 17083F   25230.88897234  .00000027  00000+0  27545-5 0  9995
2 43075  86.3921  88.4481 0002148  95.4392 264.7049 14.34217478400771
IRIDIUM 137             
1 43076U 17083G   25230.55281601  .00000054  00000+0  12142-4 0  9991
2 43076  86.3923  88.6756 0002795  87.7083 272.4433 14.34217521400794
IRIDIUM 141             
1 43077U 17083H   25230.54647185  .00000013  00000+0 -23038-5 0  9997
2 43077  86.3916  88.5256 0001926  83.8682 276.2734 14.34217360400795
IRIDIUM 153             
1 43078U 17083J   25230.77772316 -.00000020  00000+0 -14093-4 0  9997
2 43078  86.3919  56.8801 0001672  83.9381 276.2005 14.34217392401931
IRIDIUM 131             
1 43079U 17083K   25230.88262949  .00000054  00000+0  12233-4 0  9995
2 43079  86.3924  88.5512 0002177  83.0039 277.1404 14.34217768400772
